{
  "type": "FeatureCollection",
  "features": [
    {
      "type": "Feature",
      "properties": {
        "norad_id": 35616,
        "name": "IRIDIUM 33 DEB",
        "group": "iridium-33-debris",
        "lat": -80.13261793978438,
        "lon": -167.97020716980788,
        "alt_km": 629.2527902168586,
        "timestamp": "2025-12-02T07:10:09.501396+00:00",
        "meta_object_name": "IRIDIUM 33 DEB",
        "meta_object_id": "1997-051QN",
        "meta_epoch": "2025-12-01T18:38:49.910784",
        "meta_mean_motion": 14.81359224,
        "meta_eccentricity": 0.0008619,
        "meta_inclination": 86.3548,
        "meta_ra_of_asc_node": 350.7677,
        "meta_arg_of_pericenter": 204.4295,
        "meta_mean_anomaly": 155.6519,
        "meta_ephemeris_type": 0,
        "meta_classification_type": "U",
        "meta_norad_cat_id": 35616,
        "meta_element_set_no": 999,
        "meta_rev_at_epoch": 87412,
        "meta_bstar": 0.0016385,
        "meta_mean_motion_dot": 0.00012841,
        "meta_mean_motion_ddot": 0,
        "tle_line1": "1 35616U 97051QN  25335.77696656  .00012841  00000+0  16385-2 0  9993",
        "tle_line2": "2 35616  86.3548 350.7677 0008619 204.4295 155.6519 14.81359224874125"
      },
      "geometry": {
        "type": "Point",
        "coordinates": [
          -167.97020716980788,
          -80.13261793978438
        ]
      }
    },
    {
      "type": "Feature",
      "properties": {
        "norad_id": 35618,
        "name": "IRIDIUM 33 DEB",
        "group": "iridium-33-debris",
        "lat": 47.150725497837826,
        "lon": 2.0220008918531436,
        "alt_km": 692.6012091817856,
        "timestamp": "2025-12-02T07:10:09.501413+00:00",
        "meta_object_name": "IRIDIUM 33 DEB",
        "meta_object_id": "1997-051QQ",
        "meta_epoch": "2025-11-27T19:27:47.606688",
        "meta_mean_motion": 14.52216193,
        "meta_eccentricity": 0.00308317,
        "meta_inclination": 86.3414,
        "meta_ra_of_asc_node": 0.0275,
        "meta_arg_of_pericenter": 70.0508,
        "meta_mean_anomaly": 290.4015,
        "meta_ephemeris_type": 0,
        "meta_classification_type": "U",
        "meta_norad_cat_id": 35618,
        "meta_element_set_no": 999,
        "meta_rev_at_epoch": 65177,
        "meta_bstar": 0.00046503481,
        "meta_mean_motion_dot": 1.919e-05,
        "meta_mean_motion_ddot": 0,
        "tle_line1": "1 35618U 97051QQ  25331.81096767  .00001919  00000+0  46503-3 0  9993",
        "tle_line2": "2 35618  86.3414   0.0275 0030831  70.0508 290.4015 14.52216193651771"
      },
      "geometry": {
        "type": "Point",
        "coordinates": [
          2.0220008918531436,
          47.150725497837826
        ]
      }
    },
    {
      "type": "Feature",
      "properties": {
        "norad_id": 35620,
        "name": "IRIDIUM 33 DEB",
        "group": "iridium-33-debris",
        "lat": -32.98345688231185,
        "lon": 44.20447604560719,
        "alt_km": 754.071225233246,
        "timestamp": "2025-12-02T07:10:09.501430+00:00",
        "meta_object_name": "IRIDIUM 33 DEB",
        "meta_object_id": "1997-051QS",
        "meta_epoch": "2025-12-01T10:07:05.856384",
        "meta_mean_motion": 14.37391446,
        "meta_eccentricity": 0.0145824,
        "meta_inclination": 86.3886,
        "meta_ra_of_asc_node": 222.2249,
        "meta_arg_of_pericenter": 296.0647,
        "meta_mean_anomaly": 62.56,
        "meta_ephemeris_type": 0,
        "meta_classification_type": "U",
        "meta_norad_cat_id": 35620,
        "meta_element_set_no": 999,
        "meta_rev_at_epoch": 59803,
        "meta_bstar": 0.0070563828,
        "meta_mean_motion_dot": 0.00023904,
        "meta_mean_motion_ddot": 0,
        "tle_line1": "1 35620U 97051QS  25335.42159556  .00023904  00000+0  70564-2 0  9994",
        "tle_line2": "2 35620  86.3886 222.2249 0145824 296.0647  62.5600 14.37391446598034"
      },
      "geometry": {
        "type": "Point",
        "coordinates": [
          44.20447604560719,
          -32.98345688231185
        ]
      }
    },
    {
      "type": "Feature",
      "properties": {
        "norad_id": 35622,
        "name": "IRIDIUM 33 DEB",
        "group": "iridium-33-debris",
        "lat": -14.124411604875903,
        "lon": -92.22131327470616,
        "alt_km": 556.0876947712131,
        "timestamp": "2025-12-02T07:10:09.501446+00:00",
        "meta_object_name": "IRIDIUM 33 DEB",
        "meta_object_id": "1997-051QU",
        "meta_epoch": "2025-11-30T14:26:56.846112",
        "meta_mean_motion": 15.02344133,
        "meta_eccentricity": 0.0011317,
        "meta_inclination": 86.2032,
        "meta_ra_of_asc_node": 269.5689,
        "meta_arg_of_pericenter": 6.0229,
        "meta_mean_anomaly": 169.0452,
        "meta_ephemeris_type": 0,
        "meta_classification_type": "U",
        "meta_norad_cat_id": 35622,
        "meta_element_set_no": 999,
        "meta_rev_at_epoch": 87177,
        "meta_bstar": 0.0052905,
        "meta_mean_motion_dot": 0.00070654,
        "meta_mean_motion_ddot": 0,
        "tle_line1": "1 35622U 97051QU  25334.60204683  .00070654  00000+0  52905-2 0  9990",
        "tle_line2": "2 35622  86.2032 269.5689 0011317   6.0229 169.0452 15.02344133871771"
      },
      "geometry": {
        "type": "Point",
        "coordinates": [
          -92.22131327470616,
          -14.124411604875903
        ]
      }
    },
    {
      "type": "Feature",
      "properties": {
        "norad_id": 35628,
        "name": "IRIDIUM 33 DEB",
        "group": "iridium-33-debris",
        "lat": 84.10963813317466,
        "lon": 155.61523448487827,
        "alt_km": 660.0725146375644,
        "timestamp": "2025-12-02T07:10:09.501463+00:00",
        "meta_object_name": "IRIDIUM 33 DEB",
        "meta_object_id": "1997-051RA",
        "meta_epoch": "2025-12-01T09:27:48.625056",
        "meta_mean_motion": 14.67320327,
        "meta_eccentricity": 0.00118206,
        "meta_inclination": 86.3586,
        "meta_ra_of_asc_node": 14.1343,
        "meta_arg_of_pericenter": 22.1309,
        "meta_mean_anomaly": 338.0413,
        "meta_ephemeris_type": 0,
        "meta_classification_type": "U",
        "meta_norad_cat_id": 35628,
        "meta_element_set_no": 999,
        "meta_rev_at_epoch": 86280,
        "meta_bstar": 0.0015830322,
        "meta_mean_motion_dot": 8.967e-05,
        "meta_mean_motion_ddot": 0,
        "tle_line1": "1 35628U 97051RA  25335.39431279  .00008967  00000+0  15830-2 0  9990",
        "tle_line2": "2 35628  86.3586  14.1343 0011820  22.1309 338.0413 14.67320327862808"
      },
      "geometry": {
        "type": "Point",
        "coordinates": [
          155.61523448487827,
          84.10963813317466
        ]
      }
    },
    {
      "type": "Feature",
      "properties": {
        "norad_id": 35631,
        "name": "IRIDIUM 33 DEB",
        "group": "iridium-33-debris",
        "lat": 27.36283361917909,
        "lon": 27.355100747938682,
        "alt_km": 740.3976091729019,
        "timestamp": "2025-12-02T07:10:09.501479+00:00",
        "meta_object_name": "IRIDIUM 33 DEB",
        "meta_object_id": "1997-051RD",
        "meta_epoch": "2025-12-01T09:32:13.809120",
        "meta_mean_motion": 14.47260749,
        "meta_eccentricity": 0.00179714,
        "meta_inclination": 86.3683,
        "meta_ra_of_asc_node": 25.8593,
        "meta_arg_of_pericenter": 152.8458,
        "meta_mean_anomaly": 221.75,
        "meta_ephemeris_type": 0,
        "meta_classification_type": "U",
        "meta_norad_cat_id": 35631,
        "meta_element_set_no": 999,
        "meta_rev_at_epoch": 87033,
        "meta_bstar": 0.00039861832,
        "meta_mean_motion_dot": 1.48e-05,
        "meta_mean_motion_ddot": 0,
        "tle_line1": "1 35631U 97051RD  25335.39738205  .00001480  00000+0  39862-3 0  9998",
        "tle_line2": "2 35631  86.3683  25.8593 0017971 152.8458 221.7500 14.47260749870336"
      },
      "geometry": {
        "type": "Point",
        "coordinates": [
          27.355100747938682,
          27.36283361917909
        ]
      }
    },
    {
      "type": "Feature",
      "properties": {
        "norad_id": 35680,
        "name": "IRIDIUM 33 DEB",
        "group": "iridium-33-debris",
        "lat": -85.41824689793552,
        "lon": -32.15597537868974,
        "alt_km": 746.4296330370289,
        "timestamp": "2025-12-02T07:10:09.501496+00:00",
        "meta_object_name": "IRIDIUM 33 DEB",
        "meta_object_id": "1997-051RJ",
        "meta_epoch": "2025-11-29T10:20:43.781856",
        "meta_mean_motion": 14.20568057,
        "meta_eccentricity": 0.01507191,
        "meta_inclination": 86.102,
        "meta_ra_of_asc_node": 27.412,
        "meta_arg_of_pericenter": 321.0899,
        "meta_mean_anomaly": 55.9975,
        "meta_ephemeris_type": 0,
        "meta_classification_type": "U",
        "meta_norad_cat_id": 35680,
        "meta_element_set_no": 999,
        "meta_rev_at_epoch": 60512,
        "meta_bstar": 0.0028317999,
        "meta_mean_motion_dot": 6.843e-05,
        "meta_mean_motion_ddot": 0,
        "tle_line1": "1 35680U 97051RJ  25333.43106229  .00006843  00000+0  28318-2 0  9991",
        "tle_line2": "2 35680  86.1020  27.4120 0150719 321.0899  55.9975 14.20568057605124"
      },
      "geometry": {
        "type": "Point",
        "coordinates": [
          -32.15597537868974,
          -85.41824689793552
        ]
      }
    }
  ]
}